{
    "links": {
        "self": "http://www.neowsapp.com/rest/v1/neo/54054328?api_key=iIulBulltgU6a56xZRHN4H3l9WmuAYTsLGpBGhQ2"
    },
    "id": "54054328",
    "neo_reference_id": "54054328",
    "name": "(2020 RW6)",
    "designation": "2020 RW6",
    "nasa_jpl_url": "http://ssd.jpl.nasa.gov/sbdb.cgi?sstr=54054328",
    "absolute_magnitude_h": 23.679,
    "estimated_diameter": {
        "kilometers": {
            "estimated_diameter_min": 0.0488376746,
            "estimated_diameter_max": 0.1092043602
        },
        "meters": {
            "estimated_diameter_min": 48.8376745686,
            "estimated_diameter_max": 109.2043601985
        },
        "miles": {
            "estimated_diameter_min": 0.0303463147,
            "estimated_diameter_max": 0.0678564225
        },
        "feet": {
            "estimated_diameter_min": 160.2285962318,
            "estimated_diameter_max": 358.2820331136
        }
    },
    "is_potentially_hazardous_asteroid": false,
    "close_approach_data": [
        {
            "close_approach_date": "2020-09-14",
            "close_approach_date_full": "2020-Sep-14 09:18",
            "epoch_date_close_approach": 1600075080000,
            "relative_velocity": {
                "kilometers_per_second": "13.1030973867",
                "kilometers_per_hour": "47171.1505919922",
                "miles_per_hour": "29310.3185442298"
            },
            "miss_distance": {
                "astronomical": "0.0323113827",
                "lunar": "12.5691278703",
                "kilometers": "4833714.028674849",
                "miles": "3003530.6218529562"
            },
            "orbiting_body": "Earth"
        },
        {
            "close_approach_date": "2089-08-13",
            "close_approach_date_full": "2089-Aug-13 04:09",
            "epoch_date_close_approach": 3774744540000,
            "relative_velocity": {
                "kilometers_per_second": "15.2096366711",
                "kilometers_per_hour": "54754.6920159344",
                "miles_per_hour": "34022.4362695677"
            },
            "miss_distance": {
                "astronomical": "0.3940012507",
                "lunar": "153.2664865223",
                "kilometers": "58941747.882056009",
                "miles": "36624703.8238265642"
            },
            "orbiting_body": "Earth"
        },
        {
            "close_approach_date": "2147-09-28",
            "close_approach_date_full": "2147-Sep-28 00:45",
            "epoch_date_close_approach": 5608917900000,
            "relative_velocity": {
                "kilometers_per_second": "15.5922608711",
                "kilometers_per_hour": "56132.1391360244",
                "miles_per_hour": "34878.3283426036"
            },
            "miss_distance": {
                "astronomical": "0.1746465788",
                "lunar": "67.9375191532",
                "kilometers": "26126756.191267156",
                "miles": "16234413.4974965128"
            },
            "orbiting_body": "Earth"
        },
        {
            "close_approach_date": "2196-09-19",
            "close_approach_date_full": "2196-Sep-19 01:09",
            "epoch_date_close_approach": 7154528940000,
            "relative_velocity": {
                "kilometers_per_second": "13.565063759",
                "kilometers_per_hour": "48834.2295325519",
                "miles_per_hour": "30343.6911226015"
            },
            "miss_distance": {
                "astronomical": "0.038693365",
                "lunar": "15.051718985",
                "kilometers": "5788444.98713255",
                "miles": "3596772.93042719"
            },
            "orbiting_body": "Earth"
        }
    ],
    "orbital_data": {
        "orbit_id": "7",
        "orbit_determination_date": "2020-09-20 06:39:15",
        "first_observation_date": "2020-09-14",
        "last_observation_date": "2020-09-19",
        "data_arc_in_days": 5,
        "observations_used": 65,
        "orbit_uncertainty": "8",
        "minimum_orbit_intersection": ".024104",
        "jupiter_tisserand_invariant": "4.435",
        "epoch_osculation": "2459108.5",
        "eccentricity": ".3244123648133457",
        "semi_major_axis": "1.487539044848912",
        "inclination": "22.16360157689246",
        "ascending_node_longitude": "174.1214694434049",
        "orbital_period": "662.6756117919116",
        "perihelion_distance": "1.004962985557291",
        "perihelion_argument": "153.9742560402906",
        "aphelion_distance": "1.970115104140533",
        "perihelion_time": "2459084.539196177591",
        "mean_anomaly": "13.01675996909311",
        "mean_motion": ".5432522241561599",
        "equinox": "J2000",
        "orbit_class": {
            "orbit_class_type": "APO",
            "orbit_class_description": "Near-Earth asteroid orbits which cross the Earth’s orbit similar to that of 1862 Apollo",
            "orbit_class_range": "a (semi-major axis) > 1.0 AU; q (perihelion) < 1.017 AU"
        }
    },
    "is_sentry_object": false
}